{
  "type": "FeatureCollection",
  "features": [
    {
      "type": "Feature",
      "properties": {
        "norad_id": 40894,
        "name": "GAOFEN-9 01",
        "group": "resource",
        "lat": -79.94208518061521,
        "lon": 154.35887376676263,
        "alt_km": 643.794189853541,
        "timestamp": "2025-12-10T14:53:36.779846+00:00",
        "meta_object_name": "GAOFEN-9 01",
        "meta_object_id": "2015-047A",
        "meta_epoch": "2025-12-10T07:13:43.254048",
        "meta_mean_motion": 14.82412507,
        "meta_eccentricity": 0.00285697,
        "meta_inclination": 97.6545,
        "meta_ra_of_asc_node": 23.362,
        "meta_arg_of_pericenter": 41.9969,
        "meta_mean_anomaly": 318.3428,
        "meta_ephemeris_type": 0,
        "meta_classification_type": "U",
        "meta_norad_cat_id": 40894,
        "meta_element_set_no": 999,
        "meta_rev_at_epoch": 55220,
        "meta_bstar": 0.00023530779,
        "meta_mean_motion_dot": 1.847e-05,
        "meta_mean_motion_ddot": 0,
        "tle_line1": "1 40894U 15047A   25344.30119507  .00001847  00000+0  23531-3 0  9992",
        "tle_line2": "2 40894  97.6545  23.3620 0028569  41.9969 318.3428 14.82412507552204"
      },
      "geometry": {
        "type": "Point",
        "coordinates": [
          154.35887376676263,
          -79.94208518061521
        ]
      }
    },
    {
      "type": "Feature",
      "properties": {
        "norad_id": 41026,
        "name": "YAOGAN-28",
        "group": "resource",
        "lat": 80.70311555583055,
        "lon": -6.1760326977190925,
        "alt_km": 478.77325603435384,
        "timestamp": "2025-12-10T14:53:36.779855+00:00",
        "meta_object_name": "YAOGAN-28",
        "meta_object_id": "2015-064A",
        "meta_epoch": "2025-12-10T08:10:22.548000",
        "meta_mean_motion": 15.24287402,
        "meta_eccentricity": 0.00122698,
        "meta_inclination": 97.2806,
        "meta_ra_of_asc_node": 122.2007,
        "meta_arg_of_pericenter": 133.8487,
        "meta_mean_anomaly": 226.3767,
        "meta_ephemeris_type": 0,
        "meta_classification_type": "U",
        "meta_norad_cat_id": 41026,
        "meta_element_set_no": 999,
        "meta_rev_at_epoch": 56188,
        "meta_bstar": 0.00055897643,
        "meta_mean_motion_dot": 0.00013626,
        "meta_mean_motion_ddot": 0,
        "tle_line1": "1 41026U 15064A   25344.34053875  .00013626  00000+0  55898-3 0  9997",
        "tle_line2": "2 41026  97.2806 122.2007 0012269 133.8487 226.3767 15.24287402561881"
      },
      "geometry": {
        "type": "Point",
        "coordinates": [
          -6.1760326977190925,
          80.70311555583055
        ]
      }
    },
    {
      "type": "Feature",
      "properties": {
        "norad_id": 41038,
        "name": "YAOGAN-29",
        "group": "resource",
        "lat": 31.635348269612038,
        "lon": -167.23071090120433,
        "alt_km": 618.7332431993582,
        "timestamp": "2025-12-10T14:53:36.779864+00:00",
        "meta_object_name": "YAOGAN-29",
        "meta_object_id": "2015-069A",
        "meta_epoch": "2025-12-10T07:45:03.090816",
        "meta_mean_motion": 14.82878892,
        "meta_eccentricity": 3.84e-05,
        "meta_inclination": 98.0219,
        "meta_ra_of_asc_node": 7.4866,
        "meta_arg_of_pericenter": 350.7266,
        "meta_mean_anomaly": 9.394,
        "meta_ephemeris_type": 0,
        "meta_classification_type": "U",
        "meta_norad_cat_id": 41038,
        "meta_element_set_no": 999,
        "meta_rev_at_epoch": 54263,
        "meta_bstar": 9.9019777e-05,
        "meta_mean_motion_dot": 7.48e-06,
        "meta_mean_motion_ddot": 0,
        "tle_line1": "1 41038U 15069A   25344.32295244  .00000748  00000+0  99020-4 0  9998",
        "tle_line2": "2 41038  98.0219   7.4866 0000384 350.7266   9.3940 14.82878892542634"
      },
      "geometry": {
        "type": "Point",
        "coordinates": [
          -167.23071090120433,
          31.635348269612038
        ]
      }
    },
    {
      "type": "Feature",
      "properties": {
        "norad_id": 41167,
        "name": "KENT RIDGE 1",
        "group": "resource",
        "lat": 12.678894206294439,
        "lon": -75.83373095127877,
        "alt_km": 492.08572089184327,
        "timestamp": "2025-12-10T14:53:36.779874+00:00",
        "meta_object_name": "KENT RIDGE 1",
        "meta_object_id": "2015-077B",
        "meta_epoch": "2025-12-09T22:54:25.386336",
        "meta_mean_motion": 15.21601282,
        "meta_eccentricity": 0.00085499,
        "meta_inclination": 14.9787,
        "meta_ra_of_asc_node": 231.8092,
        "meta_arg_of_pericenter": 91.1625,
        "meta_mean_anomaly": 268.9676,
        "meta_ephemeris_type": 0,
        "meta_classification_type": "U",
        "meta_norad_cat_id": 41167,
        "meta_element_set_no": 999,
        "meta_rev_at_epoch": 55221,
        "meta_bstar": 0.00024156714,
        "meta_mean_motion_dot": 6.38e-05,
        "meta_mean_motion_ddot": 0,
        "tle_line1": "1 41167U 15077B   25343.95446049  .00006380  00000+0  24157-3 0  9995",
        "tle_line2": "2 41167  14.9787 231.8092 0008549  91.1625 268.9676 15.21601282552219"
      },
      "geometry": {
        "type": "Point",
        "coordinates": [
          -75.83373095127877,
          12.678894206294439
        ]
      }
    },
    {
      "type": "Feature",
      "properties": {
        "norad_id": 41194,
        "name": "GAOFEN-4",
        "group": "resource",
        "lat": -0.06917188664233105,
        "lon": 48.6687353361989,
        "alt_km": 35797.95515826633,
        "timestamp": "2025-12-10T14:53:36.779886+00:00",
        "meta_object_name": "GAOFEN-4",
        "meta_object_id": "2015-083A",
        "meta_epoch": "2025-12-10T02:11:38.764896",
        "meta_mean_motion": 1.00270487,
        "meta_eccentricity": 0.00035968,
        "meta_inclination": 0.164,
        "meta_ra_of_asc_node": 80.7571,
        "meta_arg_of_pericenter": 106.876,
        "meta_mean_anomaly": 30.0549,
        "meta_ephemeris_type": 0,
        "meta_classification_type": "U",
        "meta_norad_cat_id": 41194,
        "meta_element_set_no": 999,
        "meta_rev_at_epoch": 3663,
        "meta_bstar": 0,
        "meta_mean_motion_dot": -3.31e-06,
        "meta_mean_motion_ddot": 0,
        "tle_line1": "1 41194U 15083A   25344.09142089 -.00000331  00000+0  00000+0 0  9993",
        "tle_line2": "2 41194   0.1640  80.7571 0003596 106.8760  30.0549  1.00270487 36639"
      },
      "geometry": {
        "type": "Point",
        "coordinates": [
          48.6687353361989,
          -0.06917188664233105
        ]
      }
    },
    {
      "type": "Feature",
      "properties": {
        "norad_id": 41240,
        "name": "JASON-3",
        "group": "resource",
        "lat": -26.403868001181124,
        "lon": -4.96598178553382,
        "alt_km": 1313.0058494406667,
        "timestamp": "2025-12-10T14:53:36.779896+00:00",
        "meta_object_name": "JASON-3",
        "meta_object_id": "2016-002A",
        "meta_epoch": "2025-12-10T06:21:16.598880",
        "meta_mean_motion": 12.87626386,
        "meta_eccentricity": 0.00071534,
        "meta_inclination": 66.0389,
        "meta_ra_of_asc_node": 163.0276,
        "meta_arg_of_pericenter": 270.6579,
        "meta_mean_anomaly": 89.362,
        "meta_ephemeris_type": 0,
        "meta_classification_type": "U",
        "meta_norad_cat_id": 41240,
        "meta_element_set_no": 999,
        "meta_rev_at_epoch": 46292,
        "meta_bstar": 7.2965071e-05,
        "meta_mean_motion_dot": -4.4e-07,
        "meta_mean_motion_ddot": 0,
        "tle_line1": "1 41240U 16002A   25344.26477545 -.00000044  00000+0  72965-4 0  9999",
        "tle_line2": "2 41240  66.0389 163.0276 0007153 270.6579  89.3620 12.87626386462922"
      },
      "geometry": {
        "type": "Point",
        "coordinates": [
          -4.96598178553382,
          -26.403868001181124
        ]
      }
    },
    {
      "type": "Feature",
      "properties": {
        "norad_id": 41335,
        "name": "SENTINEL-3A",
        "group": "resource",
        "lat": -80.16184848187724,
        "lon": 110.68355053789766,
        "alt_km": 810.6417442710726,
        "timestamp": "2025-12-10T14:53:36.779905+00:00",
        "meta_object_name": "SENTINEL-3A",
        "meta_object_id": "2016-011A",
        "meta_epoch": "2025-12-10T06:52:37.713504",
        "meta_mean_motion": 14.26745193,
        "meta_eccentricity": 9.516e-05,
        "meta_inclination": 98.621,
        "meta_ra_of_asc_node": 49.3307,
        "meta_arg_of_pericenter": 93.5833,
        "meta_mean_anomaly": 266.5456,
        "meta_ephemeris_type": 0,
        "meta_classification_type": "U",
        "meta_norad_cat_id": 41335,
        "meta_element_set_no": 999,
        "meta_rev_at_epoch": 51112,
        "meta_bstar": 0.00011674176,
        "meta_mean_motion_dot": 2.39e-06,
        "meta_mean_motion_ddot": 0,
        "tle_line1": "1 41335U 16011A   25344.28654761  .00000239  00000+0  11674-3 0  9997",
        "tle_line2": "2 41335  98.6210  49.3307 0000951  93.5833 266.5456 14.26745193511122"
      },
      "geometry": {
        "type": "Point",
        "coordinates": [
          110.68355053789766,
          -80.16184848187724
        ]
      }
    }
  ]
}